[{"OBJECT_NAME":"STARLINK-30176","OBJECT_ID":"2023-107W","EPOCH":"2026-03-09T02:52:57.165312","MEAN_MOTION":15.26730149,"ECCENTRICITY":0.00017376,"INCLINATION":43.0011,"RA_OF_ASC_NODE":338.9988,"ARG_OF_PERICENTER":274.2479,"MEAN_ANOMALY":85.8174,"EPHEMERIS_TYPE":0,"CLASSIFICATION_TYPE":"U","NORAD_CAT_ID":57477,"ELEMENT_SET_NO":999,"REV_AT_EPOCH":14506,"BSTAR":0.0011458381,"MEAN_MOTION_DOT":0.00030594,"MEAN_MOTION_DDOT":0},{"OBJECT_NAME":"BREEZE-KM R\/B","OBJECT_ID":"2016-011B","EPOCH":"2026-03-09T13:46:31.765728","MEAN_MOTION":15.28220455,"ECCENTRICITY":0.0143188,"INCLINATION":98.6722,"RA_OF_ASC_NODE":284.67,"ARG_OF_PERICENTER":63.2473,"MEAN_ANOMALY":298.3333,"EPHEMERIS_TYPE":0,"CLASSIFICATION_TYPE":"U","NORAD_CAT_ID":41336,"ELEMENT_SET_NO":999,"REV_AT_EPOCH":55224,"BSTAR":0.00023628,"MEAN_MOTION_DOT":8.734e-5,"MEAN_MOTION_DDOT":0}]
